[{"OBJECT_NAME":"STARLINK-34384","OBJECT_ID":"2025-123X","EPOCH":"2026-03-09T17:36:28.841760","MEAN_MOTION":14.98332102,"ECCENTRICITY":0.00039959,"INCLINATION":70.0026,"RA_OF_ASC_NODE":194.4036,"ARG_OF_PERICENTER":269.0225,"MEAN_ANOMALY":91.0476,"EPHEMERIS_TYPE":0,"CLASSIFICATION_TYPE":"U","NORAD_CAT_ID":64312,"ELEMENT_SET_NO":999,"REV_AT_EPOCH":4162,"BSTAR":0.00051922228,"MEAN_MOTION_DOT":6.108e-5,"MEAN_MOTION_DDOT":0},{"OBJECT_NAME":"DUMSAT","OBJECT_ID":"2000-009A","EPOCH":"2026-03-09T21:34:49.034496","MEAN_MOTION":14.97147245,"ECCENTRICITY":0.00231559,"INCLINATION":64.8536,"RA_OF_ASC_NODE":17.131,"ARG_OF_PERICENTER":263.9519,"MEAN_ANOMALY":95.8958,"EPHEMERIS_TYPE":0,"CLASSIFICATION_TYPE":"U","NORAD_CAT_ID":26086,"ELEMENT_SET_NO":999,"REV_AT_EPOCH":42337,"BSTAR":4.8857475e-5,"MEAN_MOTION_DOT":4.04e-6,"MEAN_MOTION_DDOT":0}]
